{"type": "FeatureCollection", "features": [ {"type": "Feature", "properties": {"norad_id": 32289, "name": "YAOGAN-3", "group": "resource", "lat": -25.081123316205847, "lon": 26.182574715801866, "alt_km": 604.0134892665465, "timestamp": "2025-12-21T22:41:41.104164+00:00", "meta": {"OBJECT_NAME": "YAOGAN-3", "OBJECT_ID": "2007-055A", "EPOCH": "2025-12-21T14:44:56.374368", "MEAN_MOTION": 14.89894587, "ECCENTRICITY": 0.00010947, "INCLINATION": 97.8352, "RA_OF_ASC_NODE": 22.1593, "ARG_OF_PERICENTER": 74.1027, "MEAN_ANOMALY": 286.0312, "EPHEMERIS_TYPE": 0, "CLASSIFICATION_TYPE": "U", "NORAD_CAT_ID": 32289, "ELEMENT_SET_NO": 999, "REV_AT_EPOCH": 97941, "BSTAR": 0.00015771627, "MEAN_MOTION_DOT": 1.461e-05, "MEAN_MOTION_DDOT": 0}, "tle": {"line1": "1 32289U 07055A   25355.61454137  .00001461  00000+0  15772-3 0  9998", "line2": "2 32289  97.8352  22.1593 0001094  74.1027 286.0312 14.89894587979412"}}, "geometry": {"type": "Point", "coordinates": [26.182574715801866, -25.081123316205847]}}, {"type": "Feature", "properties": {"norad_id": 32376, "name": "COSMO-SKYMED 2", "group": "resource", "lat": -1.9579711014135779, "lon": 177.401958247554, "alt_km": 625.7119562943453, "timestamp": "2025-12-21T22:41:41.104175+00:00", "meta": {"OBJECT_NAME": "COSMO-SKYMED 2", "OBJECT_ID": "2007-059A", "EPOCH": "2025-12-21T14:36:08.530848", "MEAN_MOTION": 14.82152751, "ECCENTRICITY": 0.00013361, "INCLINATION": 97.8804, "RA_OF_ASC_NODE": 176.7987, "ARG_OF_PERICENTER": 83.0429, "MEAN_ANOMALY": 277.0936, "EPHEMERIS_TYPE": 0, "CLASSIFICATION_TYPE": "U", "NORAD_CAT_ID": 32376, "ELEMENT_SET_NO": 999, "REV_AT_EPOCH": 97569, "BSTAR": 6.060852e-05, "MEAN_MOTION_DOT": 4.3e-06, "MEAN_MOTION_DDOT": 0}, "tle": {"line1": "1 32376U 07059A   25355.60843207  .00000430  00000+0  60609-4 0  9993", "line2": "2 32376  97.8804 176.7987 0001336  83.0429 277.0936 14.82152751975699"}}, "geometry": {"type": "Point", "coordinates": [177.401958247554, -1.9579711014135779]}}, {"type": "Feature", "properties": {"norad_id": 32382, "name": "RADARSAT-2", "group": "resource", "lat": 20.679708400297585, "lon": -2.864818976815269, "alt_km": 791.315327018191, "timestamp": "2025-12-21T22:41:41.104186+00:00", "meta": {"OBJECT_NAME": "RADARSAT-2", "OBJECT_ID": "2007-061A", "EPOCH": "2025-12-21T14:12:02.536128", "MEAN_MOTION": 14.29983459, "ECCENTRICITY": 0.00011383, "INCLINATION": 98.579, "RA_OF_ASC_NODE": 0.053, "ARG_OF_PERICENTER": 84.3993, "MEAN_ANOMALY": 275.7319, "EPHEMERIS_TYPE": 0, "CLASSIFICATION_TYPE": "U", "NORAD_CAT_ID": 32382, "ELEMENT_SET_NO": 999, "REV_AT_EPOCH": 94057, "BSTAR": -3.7334197e-05, "MEAN_MOTION_DOT": -1.4e-06, "MEAN_MOTION_DDOT": 0}, "tle": {"line1": "1 32382U 07061A   25355.59169602 -.00000140  00000+0 -37334-4 0  9990", "line2": "2 32382  98.5790   0.0530 0001138  84.3993 275.7319 14.29983459940578"}}, "geometry": {"type": "Point", "coordinates": [-2.864818976815269, 20.679708400297585]}}, {"type": "Feature", "properties": {"norad_id": 32783, "name": "CARTOSAT-2A", "group": "resource", "lat": 31.32702253805523, "lon": 40.70056695352174, "alt_km": 626.6417432458093, "timestamp": "2025-12-21T22:41:41.104197+00:00", "meta": {"OBJECT_NAME": "CARTOSAT-2A", "OBJECT_ID": "2008-021A", "EPOCH": "2025-12-21T14:26:00.633408", "MEAN_MOTION": 14.78948333, "ECCENTRICITY": 0.00112052, "INCLINATION": 97.792, "RA_OF_ASC_NODE": 45.148, "ARG_OF_PERICENTER": 335.9079, "MEAN_ANOMALY": 24.1607, "EPHEMERIS_TYPE": 0, "CLASSIFICATION_TYPE": "U", "NORAD_CAT_ID": 32783, "ELEMENT_SET_NO": 999, "REV_AT_EPOCH": 95255, "BSTAR": -8.109024e-06, "MEAN_MOTION_DOT": -1.1e-06, "MEAN_MOTION_DDOT": 0}, "tle": {"line1": "1 32783U 08021A   25355.60139622 -.00000110  00000+0 -81090-5 0  9999", "line2": "2 32783  97.7920  45.1480 0011205 335.9079  24.1607 14.78948333952552"}}, "geometry": {"type": "Point", "coordinates": [40.70056695352174, 31.32702253805523]}}, {"type": "Feature", "properties": {"norad_id": 33320, "name": "HUANJING 1A (HJ-1A)", "group": "resource", "lat": 44.19645401481846, "lon": -23.6536418995471, "alt_km": 604.3050732389011, "timestamp": "2025-12-21T22:41:41.104207+00:00", "meta": {"OBJECT_NAME": "HUANJING 1A (HJ-1A)", "OBJECT_ID": "2008-041A", "EPOCH": "2025-12-21T14:24:01.026432", "MEAN_MOTION": 14.83419753, "ECCENTRICITY": 0.00194861, "INCLINATION": 97.6538, "RA_OF_ASC_NODE": 343.5284, "ARG_OF_PERICENTER": 6.4177, "MEAN_ANOMALY": 353.7283, "EPHEMERIS_TYPE": 0, "CLASSIFICATION_TYPE": "U", "NORAD_CAT_ID": 33320, "ELEMENT_SET_NO": 999, "REV_AT_EPOCH": 93207, "BSTAR": 0.00016380609, "MEAN_MOTION_DOT": 1.298e-05, "MEAN_MOTION_DDOT": 0}, "tle": {"line1": "1 33320U 08041A   25355.60001188  .00001298  00000+0  16381-3 0  9999", "line2": "2 33320  97.6538 343.5284 0019486   6.4177 353.7283 14.83419753932070"}}, "geometry": {"type": "Point", "coordinates": [-23.6536418995471, 44.19645401481846]}}, {"type": "Feature", "properties": {"norad_id": 33321, "name": "HUANJING 1B (HJ-1B)", "group": "resource", "lat": -65.44031018439637, "lon": 150.45184068350818, "alt_km": 652.5999255113384, "timestamp": "2025-12-21T22:41:41.104217+00:00", "meta": {"OBJECT_NAME": "HUANJING 1B (HJ-1B)", "OBJECT_ID": "2008-041B", "EPOCH": "2025-12-21T15:06:32.251680", "MEAN_MOTION": 14.82843064, "ECCENTRICITY": 0.00380074, "INCLINATION": 97.6397, "RA_OF_ASC_NODE": 347.2304, "ARG_OF_PERICENTER": 47.6189, "MEAN_ANOMALY": 312.8231, "EPHEMERIS_TYPE": 0, "CLASSIFICATION_TYPE": "U", "NORAD_CAT_ID": 33321, "ELEMENT_SET_NO": 999, "REV_AT_EPOCH": 93209, "BSTAR": 0.00012289125, "MEAN_MOTION_DOT": 9.55e-06, "MEAN_MOTION_DDOT": 0}, "tle": {"line1": "1 33321U 08041B   25355.62953995  .00000955  00000+0  12289-3 0  9996", "line2": "2 33321  97.6397 347.2304 0038007  47.6189 312.8231 14.82843064932094"}}, "geometry": {"type": "Point", "coordinates": [150.45184068350818, -65.44031018439637]}}, {"type": "Feature", "properties": {"norad_id": 33331, "name": "GEOEYE 1", "group": "resource", "lat": -5.763060974267329, "lon": 67.93607745558747, "alt_km": 682.3754133557268, "timestamp": "2025-12-21T22:41:41.104228+00:00", "meta": {"OBJECT_NAME": "GEOEYE 1", "OBJECT_ID": "2008-042A", "EPOCH": "2025-12-21T12:53:02.778144", "MEAN_MOTION": 14.64711239, "ECCENTRICITY": 0.00028511, "INCLINATION": 98.1242, "RA_OF_ASC_NODE": 66.7065, "ARG_OF_PERICENTER": 246.4092, "MEAN_ANOMALY": 113.6811, "EPHEMERIS_TYPE": 0, "CLASSIFICATION_TYPE": "U", "NORAD_CAT_ID": 33331, "ELEMENT_SET_NO": 999, "REV_AT_EPOCH": 92414, "BSTAR": 9.7712969e-05, "MEAN_MOTION_DOT": 4.73e-06, "MEAN_MOTION_DDOT": 0}, "tle": {"line1": "1 33331U 08042A   25355.53683771  .00000473  00000+0  97713-4 0  9991", "line2": "2 33331  98.1242  66.7065 0002851 246.4092 113.6811 14.64711239924143"}}, "geometry": {"type": "Point", "coordinates": [67.93607745558747, -5.763060974267329]}}, {"type": "Feature", "properties": {"norad_id": 33396, "name": "THEOS", "group": "resource", "lat": 5.692527333487469, "lon": -125.37339692777496, "alt_km": 827.0302534162065, "timestamp": "2025-12-21T22:41:41.104238+00:00", "meta": {"OBJECT_NAME": "THEOS", "OBJECT_ID": "2008-049A", "EPOCH": "2025-12-21T15:06:49.009824", "MEAN_MOTION": 14.20099116, "ECCENTRICITY": 0.00012028, "INCLINATION": 98.5859, "RA_OF_ASC_NODE": 53.4572, "ARG_OF_PERICENTER": 93.8797, "MEAN_ANOMALY": 266.2517, "EPHEMERIS_TYPE": 0, "CLASSIFICATION_TYPE": "U", "NORAD_CAT_ID": 33396, "ELEMENT_SET_NO": 999, "REV_AT_EPOCH": 89276, "BSTAR": 0.00013027467, "MEAN_MOTION_DOT": 2.35e-06, "MEAN_MOTION_DDOT": 0}, "tle": {"line1": "1 33396U 08049A   25355.62973391  .00000235  00000+0  13027-3 0  9990", "line2": "2 33396  98.5859  53.4572 0001202  93.8797 266.2517 14.20099116892768"}}, "geometry": {"type": "Point", "coordinates": [-125.37339692777496, 5.692527333487469]}}, {"type": "Feature", "properties": {"norad_id": 33412, "name": "COSMO-SKYMED 3", "group": "resource", "lat": -23.984363499238142, "lon": 22.97506154748436, "alt_km": 550.3394975024012, "timestamp": "2025-12-21T22:41:41.104249+00:00", "meta": {"OBJECT_NAME": "COSMO-SKYMED 3", "OBJECT_ID": "2008-054A", "EPOCH": "2025-12-21T13:48:57.602016", "MEAN_MOTION": 15.05425425, "ECCENTRICITY": 0.00170455, "INCLINATION": 97.8462, "RA_OF_ASC_NODE": 206.1164, "ARG_OF_PERICENTER": 142.6606, "MEAN_ANOMALY": 217.5808, "EPHEMERIS_TYPE": 0, "CLASSIFICATION_TYPE": "U", "NORAD_CAT_ID": 33412, "ELEMENT_SET_NO": 999, "REV_AT_EPOCH": 93020, "BSTAR": 6.2452159e-05, "MEAN_MOTION_DOT": 8.33e-06, "MEAN_MOTION_DDOT": 0}, "tle": {"line1": "1 33412U 08054A   25355.57566669  .00000833  00000+0  62452-4 0  9996", "line2": "2 33412  97.8462 206.1164 0017045 142.6606 217.5808 15.05425425930201"}}, "geometry": {"type": "Point", "coordinates": [22.97506154748436, -23.984363499238142]}}, {"type": "Feature", "properties": {"norad_id": 33446, "name": "YAOGAN-4", "group": "resource", "lat": 25.750185741214093, "lon": 109.80484564517445, "alt_km": 626.6795790505957, "timestamp": "2025-12-21T22:41:41.104259+00:00", "meta": {"OBJECT_NAME": "YAOGAN-4", "OBJECT_ID": "2008-061A", "EPOCH": "2025-12-21T09:02:40.964928", "MEAN_MOTION": 14.8270568, "ECCENTRICITY": 0.00130663, "INCLINATION": 97.9195, "RA_OF_ASC_NODE": 285.3917, "ARG_OF_PERICENTER": 292.927, "MEAN_ANOMALY": 67.0564, "EPHEMERIS_TYPE": 0, "CLASSIFICATION_TYPE": "U", "NORAD_CAT_ID": 33446, "ELEMENT_SET_NO": 999, "REV_AT_EPOCH": 91931, "BSTAR": 0.00013803316, "MEAN_MOTION_DOT": 1.061e-05, "MEAN_MOTION_DDOT": 0}, "tle": {"line1": "1 33446U 08061A   25355.37686302  .00001061  00000+0  13803-3 0  9995", "line2": "2 33446  97.9195 285.3917 0013066 292.9270  67.0564 14.82705680919316"}}, "geometry": {"type": "Point", "coordinates": [109.80484564517445, 25.750185741214093]}}]}